#cP2015  1  5  0  0  0.00000000      96 ORBIT IGb08 HLM  IGS
## 1826  86400.00000000   900.00000000 57027 0.0000000000000
+   32   G01G02G03G04G05G06G07G08G09G10G11G12G13G14G15G16G17
+        G18G19G20G21G22G23G24G25G26G27G28G29G30G31G32  0  0
+          0  0  0  0  0  0  0  0  0  0  0  0  0  0  0  0  0
+          0  0  0  0  0  0  0  0  0  0  0  0  0  0  0  0  0
+          0  0  0  0  0  0  0  0  0  0  0  0  0  0  0  0  0
++         2  2  2  2  2  2  2  3  2  2  2  2  2  2  2  2  2
++         2  2  2  2  2  3  2  2  2  2  2  3  2  2  2  0  0
++         0  0  0  0  0  0  0  0  0  0  0  0  0  0  0  0  0
++         0  0  0  0  0  0  0  0  0  0  0  0  0  0  0  0  0
++         0  0  0  0  0  0  0  0  0  0  0  0  0  0  0  0  0
%c G  cc GPS ccc cccc cccc cccc cccc ccccc ccccc ccccc ccccc
%c cc cc ccc ccc cccc cccc cccc cccc ccccc ccccc ccccc ccccc
%f  1.2500000  1.025000000  0.00000000000  0.000000000000000
%f  0.0000000  0.000000000  0.00000000000  0.000000000000000
%i    0    0    0    0      0      0      0      0         0
%i    0    0    0    0      0      0      0      0         0
/* FINAL ORBIT COMBINATION FROM WEIGHTED AVERAGE OF:        
/* cod emr esa gfz grg jpl mit ngs sio                      
/* REFERENCED TO IGS TIME (IGST) AND TO WEIGHTED MEAN POLE: 
/* PCV:IGS08_1822 OL/AL:FES2004  NONE     Y  ORB:CMB CLK:CMB
*  2015  1  5 18  0  0.00000000
PG01 -13356.814074  22841.328414   -762.887144    -10.476198  7  7  5  81       
PG02  18269.520545  -5883.129499 -17824.311160    540.096333  3  9  4 129       
PG03 -13171.757521  13088.350305 -19005.171997    128.117068  7  8  6 117       
PG04 -17647.454158  17466.916548   8740.876726     -5.230992  5  6  4 112       
PG05  26180.992249  -2662.903829   4198.444372   -296.819432  6  2  4  95       
PG06  12511.345238   8670.668427 -21777.185642     43.691219  4  7  6 137       
PG07  -4396.728063  22849.681370  12568.132032    428.844732  4  8  5 108       
PG08 -19617.282158   9761.945668 -14298.593023     17.025865  7  8 10 141       
PG09   5760.324633  24117.968810  -9511.439273    -46.557377  7  6  6  83       
PG10  21382.710690  10056.972340 -12916.811160   -157.479379  6  5  4 102       
PG11 -11649.214239  22022.575578   8470.522762   -548.729442  4  8  6 103       
PG12  16223.450195 -10836.041997 -17998.147191    259.069058  3 11  5 112       
PG13  16017.322597   1530.322312  20975.071466    -76.024385  5  5  2 137       
PG14 -15089.585011 -20510.373598  -7585.152295     99.628403  5 10  5  99       
PG15   9105.047118 -14085.732600  20450.329325   -224.574305  6  4  2 115       
PG16 -26384.456401    703.060407   4361.910489   -167.420245  4  6  4 124       
PG17  14816.463369  21412.419341  -5529.746566   -148.250578  6  8  6 122       
PG18  -7985.682084 -15528.940161  20555.281613    370.181713  7  7  8 141       
PG19 -12790.073545   7964.058522  21673.500822   -495.442580  5  5  3 135       
PG20  -2643.948419  16077.967609 -21177.142745    275.355346  2  9  8 115       
PG21  -2055.808950 -20907.725110  16680.517264   -404.426808  6  7  4 113       
PG22 -20260.310708 -10607.143514  13863.073404    304.224481  3  4  6 141       
PG23  -3444.622898  19572.194036 -17280.439826    -79.591557  4 10  5 113       
PG24  14825.409910 -21801.752119   2530.478521    -41.281798  5  7  5 118       
PG25   2127.632325 -14813.203433 -22014.375568      5.115935  7  7  6 123       
PG26  15636.244081    463.516374  20847.421698   -182.135916  4  1  4 113       
PG27 -17245.239111  -2512.386755  20057.772735     42.206612  4  4  5 128       
PG28  15626.149167  13094.259186  17707.605238    410.370262  2  7  6 112       
PG29  -2411.703945 -23628.225526 -11895.564764    584.074256  8 12  7  93       
PG30   4517.206174  17378.660381  19554.724125    -86.318017  5  5  4 119       
PG31 -13818.537626  -5764.345163 -21812.634658    326.063055  4  6  7 100       
PG32 -23169.837833   5641.218482 -11093.123745   -254.365769  6  4  3  95       
*  2015  1  5 18 15  0.00000000
PG01 -13546.880864  22638.382159   2103.456726    -10.475919  6  7  5  88       
PG02  17410.567389  -3847.449738 -19205.701634    540.098420  4  8  3 126       
PG03 -15259.577348  12977.807993 -17460.900990    128.140730  7  8  6 105       
PG04 -17344.667562  16271.221784  11236.923423     -5.231603  4  6  3 116       
PG05  26511.783312  -2388.012410   1406.458762   -296.814746  6  2  4  98       
PG06  11286.874186  10818.684455 -21484.418990     43.699940  4  7  6 136       
PG07  -5238.764423  23853.508268  10088.809966    428.847795  4  7  5 102       
PG08 -18660.887374   8215.488704 -16422.026044     17.026002  7  8 10 141       
PG09   4932.765378  23179.884007 -11988.805077    -46.567104  7  6  6  97       
PG10  19850.296062  10263.289553 -15047.062893   -157.481263  6  5  4 109       
PG11 -11849.229623  20777.582751  10868.698157   -548.731831  4  8  6 110       
PG12  18160.199603 -10655.446040 -16133.780163    259.071634  4 11  5 123       
PG13  16922.406173   3721.247746  19958.666421    -76.027853  6  6  2 137       
PG14 -15221.135441 -21265.140734  -4841.826822     99.625257  5 10  5  94       
PG15  10494.447311 -12119.740282  21061.599893   -224.576102  5  3  2 115       
PG16 -26714.102270    542.140845   1497.828303   -167.417451  4  6  4 130       
PG17  14870.044759  21951.280030  -2717.644369   -148.252416  5  9  6 116       
PG18  -5687.288190 -15660.493912  21196.623991    370.184235  7  8  8 134       
PG19 -13889.883334   5695.975145  21750.803795   -495.443970  5  4  2 131       
PG20  -5006.517789  16201.566230 -20636.445540    275.358880  2  9  8 110       
PG21  -1031.986819 -22301.183246  14746.705104   -404.428401  6  8  4 109       
PG22 -18597.402086 -10897.087209  15842.050922    304.227940  3  4  6 134       
PG23  -4664.368036  17844.957867 -18823.577862    -79.593758  4  9  6 113       
PG24  14852.972556 -21269.941937   5335.182385    -41.282240  5  6  4  89       
PG25   4604.142131 -14814.947257 -21616.587406      5.113871  7  7  6 125       
PG26  16616.007994   2724.653872  19949.691098   -182.147722  4  3  4 113       
PG27 -18293.919454  -4470.478223  18753.420124     42.208928  4  4  4 122       
PG28  13628.009826  13064.130546  19353.350118    410.372745  3  7  6 111       
PG29  -1559.851731 -22387.169513 -14204.344791    584.076231  8 12  7 123       
PG30   3211.772554  19104.379947  18148.337188    -86.318264  4  5  4 118       
PG31 -12509.708070  -7926.507242 -21893.777757    326.062430  4  7  7  98       
PG32 -24288.758544   5260.591099  -8552.550540   -254.358057  6  5  2 101       
*  2015  1  5 18 30  0.00000000
PG01 -13604.391852  22154.801562   4933.206812    -10.475594  6  7  5 101       
PG02  16592.552156  -1649.091072 -20243.100093    540.100736  5  7  3 121       
PG03 -17158.843711  12961.881416 -15616.608486    128.164410  7  8  5  88       
PG04 -16983.201897  14813.231980  13533.856903     -5.232166  4  6  3 120       
PG05  26541.242550  -2106.357715  -1409.480758   -296.810224  6  3  5  93       
PG06  10199.907475  12979.005315 -20822.425368     43.708663  4  6  6 134       
PG07  -5893.920148  24640.936545   7433.178268    428.850819  3  7  5 111       
PG08 -17668.164299   6428.464076 -18250.421779     17.026889  8  8 10 140       
PG09   3906.413095  22063.888182 -14259.807138    -46.576831  7  6  6  97       
PG10  18108.516829  10559.480929 -16929.147568   -157.481760  6  5  4 112       
PG11 -12069.519519  19279.736308  13073.592197   -548.734270  5  8  6 114       
PG12  19878.005132 -10576.589705 -13990.709555    259.074478  5 10  4 112       
PG13  17881.152429   5740.624551  18593.757705    -76.031957  6  7  2 140       
PG14 -15237.500831 -21736.696987  -2015.476364     99.621932  5 10  4  92       
PG15  12002.690973 -10185.356967  21306.724375   -224.578242  5  3  2 113       
PG16 -26728.717239    397.041551  -1391.465412   -167.414616  5  6  3 130       
PG17  14786.544560  22212.192143    140.781128   -148.254853  5  9  6 115       
PG18  -3344.503275 -15906.483139  21489.214216    370.186618  6  8  8 138       
PG19 -15099.685654   3504.562800  21448.248701   -495.445414  5  4  3 131       
PG20  -7282.971823  16425.294511 -19746.577342    275.362959  3  9  8 112       
PG21   -168.180184 -23538.701234  12564.663375   -404.430776  6  9  5 103       
PG22 -16745.127862 -11281.153306  17554.160358    304.231421  3  5  6 135       
PG23  -6053.347441  16051.224414 -20035.165439    -79.596173  4  8  6 111       
PG24  14774.716929 -20456.671423   8047.281600    -41.282524  5  6  4  79       
PG25   7012.713769 -14947.624599 -20848.829007      5.111805  7  7  6 134       
PG26  17651.861825   4815.663772  18690.473945   -182.159467  5  4  4 117       
PG27 -19351.217926  -6232.519476  17126.972138     42.211279  5  4  4 114       
PG28  11469.495308  13149.978907  20683.310582    410.374871  3  7  6 118       
PG29   -513.872006 -20981.368062 -16268.641146    584.078266  8 11  6 123       
PG30   2085.804724  20742.387460  16429.131757    -86.318491  5  5  4 123       
PG31 -11324.178318 -10148.144754 -21592.725466    326.061684  4  8  7 110       
PG32 -25126.472947   4937.653233  -5860.088276   -254.350257  6  5  2 102       
EOF
